[{"OBJECT_NAME":"SHIJIAN-16 (SJ-16)","OBJECT_ID":"2013-057A","EPOCH":"2026-03-09T23:08:29.723424","MEAN_MOTION":14.92346393,"ECCENTRICITY":0.00154796,"INCLINATION":74.9735,"RA_OF_ASC_NODE":184.568,"ARG_OF_PERICENTER":111.8205,"MEAN_ANOMALY":248.4632,"EPHEMERIS_TYPE":0,"CLASSIFICATION_TYPE":"U","NORAD_CAT_ID":39358,"ELEMENT_SET_NO":999,"REV_AT_EPOCH":67154,"BSTAR":5.6936716e-5,"MEAN_MOTION_DOT":5.54e-6,"MEAN_MOTION_DDOT":0},{"OBJECT_NAME":"STARLINK-34577","OBJECT_ID":"2025-142Z","EPOCH":"2026-03-09T20:22:49.679904","MEAN_MOTION":14.95911073,"ECCENTRICITY":0.0002346,"INCLINATION":70.0008,"RA_OF_ASC_NODE":314.0623,"ARG_OF_PERICENTER":271.1669,"MEAN_ANOMALY":88.922,"EPHEMERIS_TYPE":0,"CLASSIFICATION_TYPE":"U","NORAD_CAT_ID":64719,"ELEMENT_SET_NO":999,"REV_AT_EPOCH":3951,"BSTAR":0.00017350703,"MEAN_MOTION_DOT":1.855e-5,"MEAN_MOTION_DDOT":0}]
